{
  "norad_id": 65317,
  "name": "NAOS",
  "history": [
    {
      "epoch": "2026-03-28T21:01:28.378560Z",
      "apogee_km": 451.30234865849434,
      "perigee_km": 449.49715668255794,
      "latitude_deg": 1.1206135601946715e-05,
      "longitude_deg": 22.9202711015372,
      "height_km": 453.24496784828926,
      "semi_major_axis_km": 6828.536752670526,
      "eccentricity": 0.00013218,
      "inclination_deg": 97.2151,
      "raan_deg": 164.5787,
      "arg_perigee_deg": 72.3529,
      "mean_anomaly_deg": 287.7861,
      "mean_motion_rev_day": 15.38548833
    },
    {
      "epoch": "2026-03-29T04:49:45.145344Z",
      "apogee_km": 451.28575285357874,
      "perigee_km": 449.4898508306942,
      "latitude_deg": 2.9780638821206264e-06,
      "longitude_deg": -94.15031530033026,
      "height_km": 453.2502582926289,
      "semi_major_axis_km": 6828.524801842136,
      "eccentricity": 0.0001315,
      "inclination_deg": 97.215,
      "raan_deg": 164.8985,
      "arg_perigee_deg": 73.4092,
      "mean_anomaly_deg": 286.7298,
      "mean_motion_rev_day": 15.38552872
    },
    {
      "epoch": "2026-03-30T04:14:34.725120Z",
      "apogee_km": 451.25683409757585,
      "perigee_km": 449.43089831395355,
      "latitude_deg": 7.863736115501641e-05,
      "longitude_deg": -85.35887606972322,
      "height_km": 453.1299769389273,
      "semi_major_axis_km": 6828.480866205765,
      "eccentricity": 0.0001337,
      "inclination_deg": 97.2149,
      "raan_deg": 165.8581,
      "arg_perigee_deg": 68.6242,
      "mean_anomaly_deg": 291.5147,
      "mean_motion_rev_day": 15.38567721
    },
    {
      "epoch": "2026-03-30T05:48:13.985856Z",
      "apogee_km": 451.25271723766946,
      "perigee_km": 449.4217301593271,
      "latitude_deg": 2.4862220942476156e-06,
      "longitude_deg": -108.77255692949458,
      "height_km": 453.1280315090416,
      "semi_major_axis_km": 6828.474223698498,
      "eccentricity": 0.00013407,
      "inclination_deg": 97.2148,
      "raan_deg": 165.9221,
      "arg_perigee_deg": 69.0008,
      "mean_anomaly_deg": 291.1381,
      "mean_motion_rev_day": 15.38569966
    },
    {
      "epoch": "2026-03-30T13:36:30.221280Z",
      "apogee_km": 451.21760874606025,
      "perigee_km": 449.4052019703104,
      "latitude_deg": -2.0414361901600587e-05,
      "longitude_deg": 134.1594788993595,
      "height_km": 453.1006580795667,
      "semi_major_axis_km": 6828.4484053581855,
      "eccentricity": 0.00013271,
      "inclination_deg": 97.2149,
      "raan_deg": 166.2423,
      "arg_perigee_deg": 68.6671,
      "mean_anomaly_deg": 291.4716,
      "mean_motion_rev_day": 15.38578692
    }
  ]
}